#aV2009  5 19  0  0   .00000000      96 DD+AD WGS84 FIT  NGA
## 1532 172800.00000000   900.00000000 54970  .0000000000000
+   31     2  3  4  5  6  7  8  9 10 11 12 13 14 15 16 17 18
+         19 20 21 22 23 24 25 26 27 28 29 30 31 32  0  0  0
+          0  0  0  0  0  0  0  0  0  0  0  0  0  0  0  0  0
+          0  0  0  0  0  0  0  0  0  0  0  0  0  0  0  0  0
+          0  0  0  0  0  0  0  0  0  0  0  0  0  0  0  0  0
++         0  0  0  0  0  0  0  0  0  0  0  0  0  0  0  0  0
++         0  0  0  0  0  0  0  0  0  0  0  0  0  0  0  0  0
++         0  0  0  0  0  0  0  0  0  0  0  0  0  0  0  0  0
++         0  0  0  0  0  0  0  0  0  0  0  0  0  0  0  0  0
++         0  0  0  0  0  0  0  0  0  0  0  0  0  0  0  0  0
%c cc cc ccc ccc cccc cccc cccc cccc ccccc ccccc ccccc ccccc
%c cc cc ccc ccc cccc cccc cccc cccc ccccc ccccc ccccc ccccc
%f  0.0000000  0.000000000  0.00000000000  0.000000000000000
%f  0.0000000  0.000000000  0.00000000000  0.000000000000000
%i    0    0    0    0      0      0      0      0         0
%i    0    0    0    0      0      0      0      0         0
/*      NGA, ST. LOUIS,MO.                                  
/*   EPHEMERIS COMPUTED FROM  3 DAYS OF DATA                
/* CCCCCCCCCCCCCCCCCCCCCCCCCCCCCCCCCCCCCCCCCCCCCCCCCCCCCCCCC
/* CCCCCCCCCCCCCCCCCCCCCCCCCCCCCCCCCCCCCCCCCCCCCCCCCCCCCCCCC
*  2009  5 19  3 30   .00000000                                                 
P  2 -15524.749200  -2836.818700 -21429.951389    154.423778                    
V  2   8414.315673 -25760.351604  -3109.449755       .006103                    
P  3  21421.932583   4874.545052  14859.789202    394.910837                    
V  3  12258.463128  15227.384265 -21852.876854       .049842                    
P  4  -9768.914421 -14967.072547 -19667.726455    -96.784851                    
V  4  10047.767884 -22801.681002  12808.733233      -.154922                    
P  5 -18028.446597  14746.876530 -12953.670693    -85.811336                    
V  5 -16161.485653   1785.832309  25238.208481      -.202718                    
P  6  21515.021652   9862.194878  12305.411809    128.311144                    
V  6   8281.594805  13268.120844 -25458.443304       .150356                    
P  7   6281.725944 -25424.157593   4004.038003     18.624784                    
V  7   4253.364064  -3909.205079 -31440.154699      -.006400                    
P  8  -2455.296768 -20802.466328  15964.740340   -203.720390                    
V  8   9662.109480 -18172.558342 -22605.878188      -.018537                    
P  9 -14243.748113  18795.474431  11465.327108     56.582502                    
V  9   2690.503209 -15517.078423  27333.236785       .018784                    
P 10 -26393.174851    958.837789  -4357.650145    -16.207810                    
V 10   4834.256098  -3307.558062 -30850.550107      -.006139                    
P 11  12105.669771 -20380.815121  11424.456595     -3.074381                    
V 11   2416.891837  15596.148472  25174.848103      -.015174                    
P 12 -20147.691887  12052.680636 -12229.678593   -279.201129                    
V 12 -15837.076473    421.347037  26470.703895       .053278                    
P 13  -1773.790228 -20595.593428 -16808.903668    297.430405                    
V 13  13475.261018  16173.025491 -21403.114062       .009535                    
P 14  15135.950733  21802.052965   2212.766420   -108.433979                    
V 14  -3071.050685   -964.471039  32113.669429       .059624                    
P 15 -17285.680985   1741.333202  20127.641960   -292.993946                    
V 15 -15889.870238 -19985.235273 -11869.060740      -.037065                    
P 16  25093.548612   2174.596139  -8738.113269     49.808802                    
V 16 -10632.904165   3879.132754 -29126.245422      -.033513                    
P 17 -14584.456980 -22027.439976   3684.775540     59.718143                    
V 17   4944.705669   1868.610300  31143.342439       .019919                    
P 18    -93.279654  15822.956746  21529.444742    -55.713521                    
V 18 -26695.286704   3471.038204  -3069.075717       .032706                    
P 19  16141.045151  -2927.726967  20998.775731     25.265142                    
V 19  15002.385836  21827.858260  -8267.389723      -.011398                    
P 20  18244.989310 -13795.336877 -13593.254157     82.259957                    
V 20  17293.702425   -829.877351  24321.906283      -.010260                    
P 21  -3314.589044  24888.071929   7860.803690     13.218587                    
V 21  -7136.097396   7821.953187 -29340.290061      -.020753                    
P 22  11985.117124  13026.465103  19977.647528    199.415303                    
V 22 -24657.824805   4750.881150  11714.153106      -.007908                    
P 23   8594.789538 -12829.094047 -21626.712690    390.055821                    
V 23  17914.161234  20675.706804  -5433.678458       .001275                    
P 24 -13289.980457  22602.417499  -4899.355349    189.977081                    
V 24   -167.288769  -6957.746862 -30555.860735       .029483                    
P 25   8795.523613 -24906.311362  -3316.354556    419.463315                    
V 25   1145.931876   5056.508780 -31457.918918       .193856                    
P 26  -9463.169249  10966.836934  21688.759909     61.342128                    
V 26 -17703.505866 -22737.933035   4183.638175       .011986                    
P 27 -16325.383884  11490.478975  18217.344614     50.225254                    
V 27   5076.416596 -21156.282104  18576.568193       .030763                    
P 28  -9481.467492 -13483.666609  21319.708570    -24.883847                    
V 28  25643.267331  -4290.322932   8562.499827      -.002373                    
P 29    400.227836  20001.561135 -17382.925217     21.480993                    
V 29 -15253.413621 -16320.731784 -18972.988183       .037627                    
P 30  -9396.946007  16125.584812 -19231.706021    147.277845                    
V 30 -23452.884114   3761.011568  14982.058920       .027917                    
P 31  10260.836469  12895.954615 -20590.959394    -60.552280                    
V 31  -9870.875020  24734.444757  10605.083874      -.009057                    
P 32  24525.801421  -6877.023494  -6646.001640    259.581605                    
V 32   9241.843800   2031.453256  30458.913011      -.052551                    
EOF
